OBJECT_NAME,OBJECT_ID,EPOCH,MEAN_MOTION,ECCENTRICITY,INCLINATION,RA_OF_ASC_NODE,ARG_OF_PERICENTER,MEAN_ANOMALY,EPHEMERIS_TYPE,CLASSIFICATION_TYPE,NORAD_CAT_ID,ELEMENT_SET_NO,REV_AT_EPOCH,BSTAR,MEAN_MOTION_DOT,MEAN_MOTION_DDOT
ONEWEB-0395,2021-132G,2026-07-22T20:58:26.518656,13.11416418,.00019031,87.8889,13.9598,85.9372,274.1974,0,U,50475,999,22039,-.76953254E-3,-.26E-5,0
ONEWEB-0396,2021-132H,2026-07-22T14:26:15.879552,13.18687084,.00017312,87.9203,328.4151,98.2180,261.9149,0,U,50476,999,22630,.15455653E-3,.74E-6,0
ONEWEB-0397,2021-132J,2026-07-22T18:26:38.031072,13.18686114,.00016489,87.9202,328.3818,101.6138,258.5179,0,U,50477,999,22630,-.94619079E-4,-.24E-6,0
ONEWEB-0398,2021-132K,2026-07-22T22:01:57.116352,13.11418075,.00020597,87.8899,13.9449,87.1613,272.9751,0,U,50478,999,22029,.1431347E-2,.52E-5,0
ONEWEB-0399,2021-132L,2026-07-22T21:42:24.804864,13.11418978,.00013668,87.8889,13.9589,84.4354,275.6929,0,U,50479,999,22028,-.50233787E-4,-.5E-7,0
ONEWEB-0400,2021-132M,2026-07-22T06:59:30.132672,13.18686043,.00020277,87.9204,328.4664,96.3250,263.8113,0,U,50480,999,22623,.13048138E-3,.64E-6,0
ONEWEB-0401,2021-132N,2026-07-22T19:00:38.111328,13.18686521,.00018546,87.9205,328.3645,107.4666,252.6669,0,U,50481,999,22630,-.84431942E-4,-.2E-6,0
ONEWEB-0402,2021-132P,2026-07-22T14:28:41.114496,13.18684941,.00017481,87.9204,328.3907,113.5387,246.5929,0,U,50482,999,22630,.25422034E-3,.113E-5,0
ONEWEB-0403,2021-132Q,2026-07-22T07:48:03.886272,13.18686626,.00017936,87.9204,328.4705,95.9919,264.1417,0,U,50483,999,22622,.82893468E-4,.46E-6,0
ONEWEB-0404,2021-132R,2026-07-22T17:35:48.336576,13.11416835,.00017116,87.8892,13.9896,82.1845,277.9477,0,U,50484,999,22035,-.13243651E-2,-.457E-5,0
ONEWEB-0405,2021-132S,2026-07-22T19:03:04.053888,13.18685673,.0002298,87.9202,328.3629,93.2727,266.8669,0,U,50485,999,22668,-.44481493E-4,-.5E-7,0
ONEWEB-0406,2021-132T,2026-07-22T18:50:54.686688,13.18686926,.00015321,87.9202,328.3785,83.3875,276.7432,0,U,50486,999,22631,-.55974131E-4,-.9E-7,0
ONEWEB-0407,2021-132U,2026-07-22T18:41:11.849568,13.18684365,.00020317,87.9205,328.3734,103.7985,256.3373,0,U,50487,999,22625,-.68389592E-4,-.14E-6,0
ONEWEB-0409,2021-132V,2026-07-22T17:33:22.034592,13.11416942,.00017855,87.8896,13.9796,82.8057,277.3274,0,U,50488,999,22024,-.14941567E-2,-.517E-5,0
ONEWEB-0412,2021-132W,2026-07-22T18:24:12.489408,13.18686330,.00017588,87.9200,328.3833,108.5998,251.5326,0,U,50489,999,22634,-.26200527E-4,.3E-7,0
ONEWEB-0413,2021-132X,2026-07-22T18:31:29.484192,13.18684699,.00019335,87.9194,328.3781,108.1902,251.9441,0,U,50490,999,22628,.10623327E-3,.55E-6,0
ONEWEB-0414,2021-132Y,2026-07-22T14:31:06.634560,13.18687425,.00017471,87.9204,328.3968,102.1304,258.0024,0,U,50491,999,22629,.20345385E-3,.93E-6,0
ONEWEB-0417,2021-132Z,2026-07-22T18:21:46.863072,13.18684927,.00017721,87.9197,328.3817,92.8424,267.2911,0,U,50492,999,22629,-.98731859E-4,-.26E-6,0
ONEWEB-0418,2021-132AA,2026-07-22T18:36:09.073728,13.18685366,.0001783,87.9197,328.3811,91.8314,268.3022,0,U,50493,999,22635,-.14346372E-4,.7E-7,0
ONEWEB-0419,2021-132AB,2026-07-22T19:03:42.799104,13.18665868,.00020289,87.9200,328.3785,92.1794,267.9571,0,U,50494,999,22627,-.69802131E-4,-.15E-6,0
ONEWEB-0420,2021-132AC,2026-07-22T07:16:29.516160,13.18684623,.00020593,87.9194,328.4760,102.7626,257.3736,0,U,50495,999,22620,.20469672E-3,.94E-6,0
ONEWEB-0421,2021-132AD,2026-07-22T14:23:51.029088,13.18686843,.00015887,87.9199,328.4154,106.2208,253.9099,0,U,50496,999,22628,.20338756E-3,.93E-6,0
ONEWEB-0424,2021-132AE,2026-07-22T08:00:12.108672,13.18686989,.00021448,87.9204,328.4680,92.1745,267.9633,0,U,50497,999,22627,.53969498E-4,.34E-6,0
ONEWEB-0426,2021-132AF,2026-07-22T07:00:41.824800,13.18680821,.00013672,87.9205,328.4669,88.3082,271.8207,0,U,50498,999,22621,.27482288E-2,.1096E-4,0
ONEWEB-0427,2021-132AG,2026-07-22T18:53:20.954112,13.18686343,.00017657,87.9204,328.3581,93.7723,266.3612,0,U,50499,999,22630,-.2297021E-5,.12E-6,0
ONEWEB-0429,2021-132AH,2026-07-22T14:55:23.352384,13.18684686,.00020173,87.9192,328.4124,102.1730,257.9628,0,U,50500,999,22625,.23005979E-3,.104E-5,0
ONEWEB-0430,2021-132AJ,2026-07-22T18:16:54.801696,13.18684264,.00021684,87.9194,328.3833,102.3824,257.7551,0,U,50501,999,22631,.14471002E-3,.7E-6,0
ONEWEB-0432,2021-132AK,2026-07-22T17:52:27.411744,13.18686350,.00023147,87.9204,328.3740,94.8318,265.3079,0,U,50502,999,22626,-.5915147E-4,-.1E-6,0
ONEWEB-0440,2021-132AL,2026-07-22T18:46:03.688032,13.18684474,.00018269,87.9204,328.3782,109.5663,250.5667,0,U,50503,999,22626,-.11938725E-3,-.34E-6,0
ONEWEB-0450,2021-132AM,2026-07-22T18:36:32.539104,13.18686894,.0002043,87.9195,328.3810,102.6039,257.5322,0,U,50504,999,22629,.30854316E-4,.25E-6,0
